HELIOS 1B               
1 25977U 99064A   20291.92666494  .00000006  00000-0  78116-5 0  9992
2 25977  98.2963  91.1956 0000817  21.6309 338.4938 14.82500012393261
TERRA                   
1 25994U 99068A   20292.17361459  .00000062  00000-0  23870-4 0  9994
2 25994  98.2033   4.6915 0001441  92.7688 351.7411 14.57116122108181
SL-16 R/B               
1 26070U 00006B   20291.70731185  .00000231  00000-0  14244-3 0  9991
2 26070  71.0011 276.3491 0018700 295.0190  64.8991 14.15469983 69935
MTI                     
1 26102U 00014A   20291.66232552  .00005020  00000-0  71491-4 0  9994
2 26102  97.4862 179.8785 0008461 126.0259 234.1781 15.56810394143521
TITAN 4B R/B            
1 26474U 00047B   20292.00605965  .00000050  00000-0  15282-4 0  9997
2 26474  67.9925  98.3481 0051648  60.1854 300.4409 14.96000976 97653
ENVISAT                 
1 27386U 02009A   20292.02777676  .00000012  00000-0  17571-4 0  9992
2 27386  98.1398 292.6468 0001200  91.5679 331.7285 14.37995515976238
IDEFIX & ARIANE 42P R/B 
1 27422U 02021B   20291.89406035 -.00000015  00000-0  10654-4 0  9998
2 27422  98.3667 247.9756 0011250 226.1347 133.8907 14.29295974962653
AQUA                    
1 27424U 02022A   20292.19752681  .00000082  00000-0  28189-4 0  9991
2 27424  98.2006 231.0210 0001541  18.3040  89.4548 14.57121719981792
CZ-4B R/B               
1 27432U 02024C   20291.88726875 -.00000037  00000-0  46971-5 0  9994
2 27432  99.0914 296.1767 0050255 189.9429 231.2704 14.14098110950955
MIDORI II (ADEOS-II)    
1 27597U 02056A   20291.85211629  .00000018  00000-0  24895-4 0  9992
2 27597  98.5321 236.4257 0001485  42.0828 318.0467 14.27463694929275
H-2A R/B                
1 27601U 02056E   20291.94635581  .00000089  00000-0  47383-4 0  9990
2 27601  98.2157 321.3536 0070926 272.8163 148.2346 14.31974765932229
CZ-4B R/B               
1 28059U 03049C   20291.79545723  .00000038  00000-0  20722-4 0  9994
2 28059  98.4827 209.6819 0051020 123.7921 236.8148 14.52613793900598
CZ-2C R/B               
1 28222U 04012C   20291.87316998  .00000639  00000-0  42042-4 0  9992
2 28222  97.6929 254.8466 0046328 333.0965  78.5175 15.10503544904472
SL-16 R/B               
1 28353U 04021B   20291.71264626  .00000243  00000-0  15202-3 0  9998
2 28353  71.0021  42.9100 0004537 172.4776 187.6415 14.14232706844427
CZ-4B R/B               
1 28415U 04035C   20291.68448859  .00000051  00000-0  76981-5 0  9990
2 28415  97.6006 331.8377 0050100 296.5054  63.1041 15.06922315882040
CZ-2C R/B               
1 28480U 04046B   20291.95053795  .00000041  00000-0  30772-4 0  9991
2 28480  98.0687 317.3442 0141081 221.9650 200.0272 14.25729308827872
ARIANE 5 R/B            
1 28499U 04049H   20292.21425392  .00000058  00000-0  14686-4 0  9994
2 28499  98.0607  34.4160 0091060 236.0717 180.6003 14.80050908854295
CZ-2D R/B               
1 28738U 05024B   20291.93911618  .00000343  00000-0  23516-4 0  9992
2 28738  97.3770 310.4183 0013421 117.1605 243.0996 15.12121476839918
SUZAKU (ASTRO-EII)      
1 28773U 05025A   20291.48642390  .00001068  00000-0  47296-4 0  9996
2 28773  31.3822 303.0709 0004443 355.0790   4.9813 15.17742185842497
ALOS (DAICHI)           
1 28931U 06002A   20291.93142632  .00000118  00000-0  31846-4 0  9991
2 28931  97.8562 271.7358 0002069  69.5202 290.6232 14.62748377785605
H-2A R/B                
1 28932U 06002B   20291.95467737  .00000561  00000-0  57692-4 0  9999
2 28932  98.3300 288.9438 0087321 281.0592 137.4799 14.92312017799419
AKARI (ASTRO-F)         
1 28939U 06005A   20292.03687465  .00002664  00000-0  71808-4 0  9992
2 28939  98.2441 280.3653 0090324 254.9161 104.2072 15.34925792799710
RESURS-DK 1             
1 29228U 06021A   20291.90731435  .00000076  00000-0  13097-4 0  9995
2 29228  69.9353 236.2559 0007885 272.3346  87.6912 15.02578030791143
GENESIS 1               
1 29252U 06029A   20291.66762619  .00000548  00000-0  36596-4 0  9994
2 29252  64.5191 261.8182 0014101  15.0383 345.1157 15.18239957786651
CZ-4B R/B               
1 29507U 06046C   20292.11701162 -.00000271  00000-0 -15997-4 0  9990
2 29507  97.7273 313.5840 0050925 112.0185 248.6459 15.00558786763811
CZ-2C R/B               
1 31114U 07010B   20291.82700763  .00000004  00000-0  20932-4 0  9999
2 31114  98.2468 136.4083 0058536 270.5629  88.8841 14.19333137700360
COSMO-SKYMED 1          
1 31598U 07023A   20292.07696782  .00000182  00000-0  29357-4 0  9999
2 31598  97.8869 113.4609 0001368  87.9773 272.1598 14.82155377722994
GENESIS 2               
1 31789U 07028A   20291.75710055  .00000216  00000-0  21006-4 0  9991
2 31789  64.5032 303.3694 0034530 232.9829 126.8134 15.17382966733734
COSMOS 2428             
1 31792U 07029A   20291.95572616 -.00000275  00000-0 -12331-3 0  9994
2 31792  70.9013  15.6440 0010416 255.8991 104.0972 14.12266236686168
SL-16 R/B               
1 31793U 07029B   20291.63190507 -.00000098  00000-0 -26084-4 0  9999
2 31793  70.9782 349.7098 0002158 274.5576 196.8499 14.14439807686951
KORONAS-FOTON           
1 33504U 09003A   20291.89985543  .00000622  00000-0  30881-4 0  9996
2 33504  82.4391 100.9854 0018200 211.6136 148.4005 15.15722553645937
H-2A R/B                
1 38341U 12025E   20291.88908950  .00000211  00000-0  32221-4 0  9998
2 38341  98.5149  94.9474 0055152 197.4779 162.4537 14.84086496455525
CUSAT 2 & FALCON 9 R/B  
1 39271U 13055G   20291.85680683  .00008345  00000-0  19847-3 0  9996
2 39271  80.9629 135.2326 0583395 161.7219 200.5952 14.49356392368455
SL-4 R/B                
1 39679U 14021B   20291.64132172  .00000712  00000-0  52269-4 0  9990
2 39679  51.6155 260.3430 0171770   9.3974 351.0143 15.06527342357447
ALOS-2                  
1 39766U 14029A   20291.85896949  .00000018  00000-0  92962-5 0  9991
2 39766  97.9227  26.7049 0001454  86.0620 274.0754 14.79471172345793
CZ-2C R/B               
1 40306U 14071B   20291.89144135  .00003972  00000-0  83780-4 0  9996
2 40306  97.3375 239.6009 0017250  81.0160 279.3040 15.45686513332758
SL-27 R/B               
1 40354U 14084B   20291.89512007  .00000769  00000-0  19865-4 0  9994
2 40354  74.7362 134.7549 0038673 261.9463  97.7360 15.40417951326985
YAOGAN 29               
1 41038U 15069A   20292.24577926  .00000009  00000-0  81114-5 0  9993
2 41038  98.0209 280.0798 0000891 115.8299 244.3004 14.80463425264447
ASTRO-H (HITOMI)        
1 41337U 16012A   20291.74700796  .00000265  00000-0  14528-4 0  9999
2 41337  31.0062 314.3487 0012363 200.0508 159.9642 14.98718684255860
SHENZHOU-11 MODULE      
1 41868U 16061G   20280.09605367  .05817383  92395-5  21431-3 0  9991
2 41868  42.7730 152.8530 0009505 273.5415  86.4563 16.43610672223872
HXMT (HUIYAN)           
1 42758U 17034A   20292.17310185  .00000068  00000-0  17906-4 0  9993
2 42758  43.0174  82.7265 0009303  73.4010 268.4590 15.08915157184400
CZ-2C R/B               
1 43521U 18054D   20291.90918221  .00000656  00000-0  37710-4 0  9998
2 43521  35.1525 145.2345 0081784 118.1437 242.7569 15.11121114127682
AEOLUS                  
1 43600U 18066A   20292.07925985  .00029987  00000-0  11770-3 0  9998
2 43600  96.7207 296.6369 0007455  92.0765 268.1361 15.86856152124817
SAOCOM 1A               
1 43641U 18076A   20292.15280285  .00000014  00000-0  83538-5 0  9993
2 43641  97.8892 116.5246 0001434  81.3367 278.8006 14.82150862109770
CREW DRAGON DEMO-1 DEB  
1 44064U 19011B   20291.57854327  .00021318  00000-0  19073-3 0  9993
2 44064  51.6342  52.3339 0002284 162.3646 197.7430 15.68305117 92054
